IRIDIUM 159             
1 43578U 18061K   24223.35859049  .00000778  00000+0  27064-3 0  9992
2 43578  86.4012 339.1433 0002238  98.3571 261.7879 14.34219089316511
IRIDIUM 180             
1 43922U 19002A   24223.56739401  .00000599  00000+0  20694-3 0  9996
2 43922  86.3937 275.9257 0002324  96.9140 263.2320 14.34220009292157
IRIDIUM 176             
1 43923U 19002B   24223.55998074  .00002740  00000+0  43083-3 0  9996
2 43923  86.6064 275.9468 0002299  99.9321 260.2156 14.72231173299844
IRIDIUM 168             
1 43924U 19002C   24223.56105219 -.00000083  00000+0 -36756-4 0  9999
2 43924  86.3940 275.9862 0002097  97.0844 263.0591 14.34217731292139
IRIDIUM 173             
1 43925U 19002D   24223.54836636  .00000570  00000+0  19663-3 0  9998
2 43925  86.3935 275.9083 0002259  95.0573 265.0881 14.34220050292116
IRIDIUM 169             
1 43926U 19002E   24223.23968156  .00000976  00000+0  31248-3 0  9991
2 43926  86.4240 307.6748 0003941  76.3271 283.8366 14.38621021293040
IRIDIUM 172             
1 43927U 19002F   24223.61179235  .00000369  00000+0  12474-3 0  9992
2 43927  86.3937 275.8879 0002154  92.8517 267.2925 14.34217400292139
IRIDIUM 175             
1 43928U 19002G   24223.55442386  .00000970  00000+0  15005-3 0  9997
2 43928  86.1472 246.0154 0002501  88.5671 271.5832 14.72212594299837
